{
"type": "FeatureCollection",
"name": "ndvi_shadows",
"crs": { "type": "name", "properties": { "name": "urn:ogc:def:crs:OGC:1.3:CRS84" } },
"features": [
{ "type": "Feature", "properties": { "idx": 0, "Name": "B4_C_PSEMEN_T2_seedling", "code_desc": "Point", "note": null, "ndvi_0o25": 0.44131636619567871, "ndvi_0o1": 0.55649268627166748, "shadow_idx": 0.5392833948135376, "gps_rms_m": 0.018, "tilt_deg": 1.1, "n_px_0o25": 276, "n_px_0o1": 44, "thumbnail": "data/raster/seedling_thumbnails/2025/B4_C_PSEMEN_T2_seedling.png" }, "geometry": { "type": "Point", "coordinates": [ -113.9445941, 46.75341319 ] } },
{ "type": "Feature", "properties": { "idx": 1, "Name": "B4_C_PICENG_adult1", "code_desc": "Point", "note": "test", "ndvi_0o25": 0.33453905582427979, "ndvi_0o1": 0.35976287722587585, "shadow_idx": 0.69201970100402832, "gps_rms_m": 0.021, "tilt_deg": 4.2, "n_px_0o25": 275, "n_px_0o1": 47, "thumbnail": "data/raster/seedling_thumbnails/2025/B4_C_PICENG_adult1.png" }, "geometry": { "type": "Point", "coordinates": [ -113.94455376, 46.75337679 ] } },
{ "type": "Feature", "properties": { "idx": 2, "Name": "B4_C_PINCON_R1", "code_desc": "Point", "note": null, "ndvi_0o25": 0.21630148589611053, "ndvi_0o1": 0.17012600600719452, "shadow_idx": 0.8931201696395874, "gps_rms_m": 0.022, "tilt_deg": 12.0, "n_px_0o25": 277, "n_px_0o1": 43, "thumbnail": "data/raster/seedling_thumbnails/2025/B4_C_PINCON_R1.png" }, "geometry": { "type": "Point", "coordinates": [ -113.94452759, 46.75355244 ] } },
{ "type": "Feature", "properties": { "idx": 3, "Name": "B4_C_PSEMEN_adult3", "code_desc": "Point", "note": null, "ndvi_0o25": 0.39166384935379028, "ndvi_0o1": 0.41434261202812195, "shadow_idx": 0.89909875392913818, "gps_rms_m": 0.02, "tilt_deg": 4.9, "n_px_0o25": 280, "n_px_0o1": 43, "thumbnail": "data/raster/seedling_thumbnails/2025/B4_C_PSEMEN_adult3.png" }, "geometry": { "type": "Point", "coordinates": [ -113.94451237, 46.75354834 ] } },
{ "type": "Feature", "properties": { "idx": 4, "Name": "B4_C_PINCON_R2", "code_desc": "Point", "note": null, "ndvi_0o25": 0.35778909921646118, "ndvi_0o1": 0.33010771870613098, "shadow_idx": 0.82213705778121948, "gps_rms_m": 0.018, "tilt_deg": 1.3, "n_px_0o25": 274, "n_px_0o1": 44, "thumbnail": "data/raster/seedling_thumbnails/2025/B4_C_PINCON_R2.png" }, "geometry": { "type": "Point", "coordinates": [ -113.9445167, 46.75358699 ] } },
{ "type": "Feature", "properties": { "idx": 5, "Name": "B4_C_PSEMEN_adult4", "code_desc": "Point", "note": null, "ndvi_0o25": 0.35183814167976379, "ndvi_0o1": 0.35868608951568604, "shadow_idx": 0.80331450700759888, "gps_rms_m": 0.02, "tilt_deg": 8.3, "n_px_0o25": 278, "n_px_0o1": 44, "thumbnail": "data/raster/seedling_thumbnails/2025/B4_C_PSEMEN_adult4.png" }, "geometry": { "type": "Point", "coordinates": [ -113.94450626, 46.75359648 ] } },
{ "type": "Feature", "properties": { "idx": 6, "Name": "B4_C_PSEMEN_adult5", "code_desc": "Point", "note": null, "ndvi_0o25": 0.43888381123542786, "ndvi_0o1": 0.45156446099281311, "shadow_idx": 0.80877739191055298, "gps_rms_m": 0.023, "tilt_deg": 18.4, "n_px_0o25": 275, "n_px_0o1": 47, "thumbnail": "data/raster/seedling_thumbnails/2025/B4_C_PSEMEN_adult5.png" }, "geometry": { "type": "Point", "coordinates": [ -113.94449897, 46.7536092 ] } },
{ "type": "Feature", "properties": { "idx": 7, "Name": "B4_G_PSEMEN_adult1", "code_desc": "Point", "note": null, "ndvi_0o25": 0.25936219096183777, "ndvi_0o1": 0.26654666662216187, "shadow_idx": 0.65815043449401855, "gps_rms_m": 0.018, "tilt_deg": 2.9, "n_px_0o25": 282, "n_px_0o1": 45, "thumbnail": "data/raster/seedling_thumbnails/2025/B4_G_PSEMEN_adult1.png" }, "geometry": { "type": "Point", "coordinates": [ -113.94447781, 46.75368037 ] } },
{ "type": "Feature", "properties": { "idx": 8, "Name": "B4_G_PSEMEN_adult2", "code_desc": "Point", "note": null, "ndvi_0o25": 0.38152763247489929, "ndvi_0o1": 0.22455848753452301, "shadow_idx": 0.58384263515472412, "gps_rms_m": 0.021, "tilt_deg": 7.6, "n_px_0o25": 274, "n_px_0o1": 44, "thumbnail": "data/raster/seedling_thumbnails/2025/B4_G_PSEMEN_adult2.png" }, "geometry": { "type": "Point", "coordinates": [ -113.94446435, 46.75367586 ] } },
{ "type": "Feature", "properties": { "idx": 9, "Name": "B4_C_PSEMEN_S2_seedling", "code_desc": "Point", "note": null, "ndvi_0o25": 0.24560147523880005, "ndvi_0o1": 0.22807025909423828, "shadow_idx": 0.58780401945114136, "gps_rms_m": 0.016, "tilt_deg": null, "n_px_0o25": 279, "n_px_0o1": 43, "thumbnail": "data/raster/seedling_thumbnails/2025/B4_C_PSEMEN_S2_seedling.png" }, "geometry": { "type": "Point", "coordinates": [ -113.9445863, 46.7534293 ] } },
{ "type": "Feature", "properties": { "idx": 10, "Name": "B4_C_PSEMEN_S1_seedling", "code_desc": "Point", "note": null, "ndvi_0o25": 0.28678604960441589, "ndvi_0o1": 0.29939517378807068, "shadow_idx": 0.81187111139297485, "gps_rms_m": 0.017, "tilt_deg": null, "n_px_0o25": 280, "n_px_0o1": 43, "thumbnail": "data/raster/seedling_thumbnails/2025/B4_C_PSEMEN_S1_seedling.png" }, "geometry": { "type": "Point", "coordinates": [ -113.94456257, 46.75349003 ] } },
{ "type": "Feature", "properties": { "idx": 11, "Name": "B4_C_PSEMEN_T1_seedling", "code_desc": "Point", "note": null, "ndvi_0o25": 0.23696094751358032, "ndvi_0o1": 0.22265300154685974, "shadow_idx": 0.83406996726989746, "gps_rms_m": 0.015, "tilt_deg": null, "n_px_0o25": 275, "n_px_0o1": 44, "thumbnail": "data/raster/seedling_thumbnails/2025/B4_C_PSEMEN_T1_seedling.png" }, "geometry": { "type": "Point", "coordinates": [ -113.94456071, 46.75350329 ] } },
{ "type": "Feature", "properties": { "idx": 12, "Name": "B4_C_PSEMEN_adult2", "code_desc": "Point", "note": null, "ndvi_0o25": 0.2525058388710022, "ndvi_0o1": 0.25831320881843567, "shadow_idx": 0.8039400577545166, "gps_rms_m": 0.024, "tilt_deg": null, "n_px_0o25": 277, "n_px_0o1": 45, "thumbnail": "data/raster/seedling_thumbnails/2025/B4_C_PSEMEN_adult2.png" }, "geometry": { "type": "Point", "coordinates": [ -113.94457085, 46.75350525 ] } },
{ "type": "Feature", "properties": { "idx": 13, "Name": "B4_C_PICENG_adult2", "code_desc": "Point", "note": null, "ndvi_0o25": 0.25049546360969543, "ndvi_0o1": 0.23974916338920593, "shadow_idx": 0.85848510265350342, "gps_rms_m": 0.023, "tilt_deg": null, "n_px_0o25": 274, "n_px_0o1": 45, "thumbnail": "data/raster/seedling_thumbnails/2025/B4_C_PICENG_adult2.png" }, "geometry": { "type": "Point", "coordinates": [ -113.94450761, 46.75342363 ] } },
{ "type": "Feature", "properties": { "idx": 14, "Name": "B4_C_PSEMEN_adult1", "code_desc": "Point", "note": "not exactly on tree 2m away", "ndvi_0o25": 0.32222750782966614, "ndvi_0o1": 0.29864481091499329, "shadow_idx": 0.59187859296798706, "gps_rms_m": 0.018, "tilt_deg": 1.7, "n_px_0o25": 275, "n_px_0o1": 44, "thumbnail": "data/raster/seedling_thumbnails/2025/B4_C_PSEMEN_adult1.png" }, "geometry": { "type": "Point", "coordinates": [ -113.94457239, 46.75336176 ] } },
{ "type": "Feature", "properties": { "idx": 15, "Name": "B4_G_PSEMEN_S1_seedling", "code_desc": "Point", "note": "not exactly on tree 2m away", "ndvi_0o25": 0.31879982352256775, "ndvi_0o1": 0.3034425675868988, "shadow_idx": 0.71505254507064819, "gps_rms_m": 0.018, "tilt_deg": 2.4, "n_px_0o25": 276, "n_px_0o1": 42, "thumbnail": "data/raster/seedling_thumbnails/2025/B4_G_PSEMEN_S1_seedling.png" }, "geometry": { "type": "Point", "coordinates": [ -113.94446999, 46.75376562 ] } },
{ "type": "Feature", "properties": { "idx": 16, "Name": "B4_G_PICENG_T1_seedling", "code_desc": "Point", "note": null, "ndvi_0o25": 0.43516993522644043, "ndvi_0o1": 0.39584338665008545, "shadow_idx": 0.73182737827301025, "gps_rms_m": 0.018, "tilt_deg": 0.5, "n_px_0o25": 277, "n_px_0o1": 44, "thumbnail": "data/raster/seedling_thumbnails/2025/B4_G_PICENG_T1_seedling.png" }, "geometry": { "type": "Point", "coordinates": [ -113.94446892, 46.75377008 ] } },
{ "type": "Feature", "properties": { "idx": 17, "Name": "B4_G_PICENG_S1_seedling", "code_desc": "Point", "note": null, "ndvi_0o25": 0.36345666646957397, "ndvi_0o1": 0.32324707508087158, "shadow_idx": 0.74234473705291748, "gps_rms_m": 0.017, "tilt_deg": 1.3, "n_px_0o25": 279, "n_px_0o1": 44, "thumbnail": "data/raster/seedling_thumbnails/2025/B4_G_PICENG_S1_seedling.png" }, "geometry": { "type": "Point", "coordinates": [ -113.94446142, 46.75377837 ] } },
{ "type": "Feature", "properties": { "idx": 18, "Name": "B4_G_PSEMEN_T1_seedling", "code_desc": "Point", "note": null, "ndvi_0o25": 0.36577588319778442, "ndvi_0o1": 0.34184396266937256, "shadow_idx": 0.7232743501663208, "gps_rms_m": 0.017, "tilt_deg": 1.9, "n_px_0o25": 281, "n_px_0o1": 43, "thumbnail": "data/raster/seedling_thumbnails/2025/B4_G_PSEMEN_T1_seedling.png" }, "geometry": { "type": "Point", "coordinates": [ -113.94446213, 46.75377332 ] } },
{ "type": "Feature", "properties": { "idx": 19, "Name": "B4_G_PICENG_T2_seedling", "code_desc": "Point", "note": null, "ndvi_0o25": 0.31580871343612671, "ndvi_0o1": 0.30764904618263245, "shadow_idx": 0.76908928155899048, "gps_rms_m": 0.019, "tilt_deg": 2.4, "n_px_0o25": 276, "n_px_0o1": 43, "thumbnail": "data/raster/seedling_thumbnails/2025/B4_G_PICENG_T2_seedling.png" }, "geometry": { "type": "Point", "coordinates": [ -113.94445077, 46.75379675 ] } },
{ "type": "Feature", "properties": { "idx": 20, "Name": "B4_G_PICENG_S2_seedling", "code_desc": "Point", "note": null, "ndvi_0o25": 0.29939490556716919, "ndvi_0o1": 0.32466056942939758, "shadow_idx": 0.79543697834014893, "gps_rms_m": 0.019, "tilt_deg": 2.3, "n_px_0o25": 275, "n_px_0o1": 47, "thumbnail": "data/raster/seedling_thumbnails/2025/B4_G_PICENG_S2_seedling.png" }, "geometry": { "type": "Point", "coordinates": [ -113.94442658, 46.75380077 ] } },
{ "type": "Feature", "properties": { "idx": 21, "Name": "B4_G_PSEMEN_S2_seedling", "code_desc": "Point", "note": null, "ndvi_0o25": 0.43571427464485168, "ndvi_0o1": 0.40399673581123352, "shadow_idx": 0.65655577182769775, "gps_rms_m": 0.018, "tilt_deg": 0.8, "n_px_0o25": 276, "n_px_0o1": 44, "thumbnail": "data/raster/seedling_thumbnails/2025/B4_G_PSEMEN_S2_seedling.png" }, "geometry": { "type": "Point", "coordinates": [ -113.94439399, 46.75376394 ] } },
{ "type": "Feature", "properties": { "idx": 22, "Name": "B4_G_PSEMEN_T2_seedling", "code_desc": "Point", "note": null, "ndvi_0o25": 0.40846183896064758, "ndvi_0o1": 0.42246800661087036, "shadow_idx": 0.63013482093811035, "gps_rms_m": 0.018, "tilt_deg": 2.1, "n_px_0o25": 279, "n_px_0o1": 43, "thumbnail": "data/raster/seedling_thumbnails/2025/B4_G_PSEMEN_T2_seedling.png" }, "geometry": { "type": "Point", "coordinates": [ -113.94439895, 46.7537593 ] } },
{ "type": "Feature", "properties": { "idx": 23, "Name": "B4_G_PINPON_R1seedlings", "code_desc": "Point", "note": null, "ndvi_0o25": 0.33415067195892334, "ndvi_0o1": 0.3179553747177124, "shadow_idx": 0.56003427505493164, "gps_rms_m": 0.018, "tilt_deg": 3.3, "n_px_0o25": 278, "n_px_0o1": 44, "thumbnail": "data/raster/seedling_thumbnails/2025/B4_G_PINPON_R1seedlings.png" }, "geometry": { "type": "Point", "coordinates": [ -113.94443905, 46.75375322 ] } },
{ "type": "Feature", "properties": { "idx": 24, "Name": "B4_G_PINPON_R2seedlings1", "code_desc": "Point", "note": null, "ndvi_0o25": 0.30508130788803101, "ndvi_0o1": 0.30841162800788879, "shadow_idx": 0.52758580446243286, "gps_rms_m": 0.017, "tilt_deg": 0.5, "n_px_0o25": 276, "n_px_0o1": 44, "thumbnail": "data/raster/seedling_thumbnails/2025/B4_G_PINPON_R2seedlings1.png" }, "geometry": { "type": "Point", "coordinates": [ -113.94441576, 46.75372756 ] } },
{ "type": "Feature", "properties": { "idx": 25, "Name": "B4_G_PICENG_adult1", "code_desc": "Point", "note": null, "ndvi_0o25": 0.14943686127662659, "ndvi_0o1": 0.12914608418941498, "shadow_idx": 0.54667842388153076, "gps_rms_m": 0.018, "tilt_deg": 1.8, "n_px_0o25": 279, "n_px_0o1": 43, "thumbnail": "data/raster/seedling_thumbnails/2025/B4_G_PICENG_adult1.png" }, "geometry": { "type": "Point", "coordinates": [ -113.94439844, 46.75373322 ] } },
{ "type": "Feature", "properties": { "idx": 26, "Name": "B4_G_PSEMEN_adult3", "code_desc": "Point", "note": null, "ndvi_0o25": 0.4200311005115509, "ndvi_0o1": 0.43397143483161926, "shadow_idx": 0.6035810112953186, "gps_rms_m": 0.018, "tilt_deg": 3.0, "n_px_0o25": 274, "n_px_0o1": 44, "thumbnail": "data/raster/seedling_thumbnails/2025/B4_G_PSEMEN_adult3.png" }, "geometry": { "type": "Point", "coordinates": [ -113.94442885, 46.75376576 ] } },
{ "type": "Feature", "properties": { "idx": 27, "Name": "B4_G_PSEMEN_adult4", "code_desc": "Point", "note": null, "ndvi_0o25": 0.12836335599422455, "ndvi_0o1": 0.14711715281009674, "shadow_idx": 0.682373046875, "gps_rms_m": 0.018, "tilt_deg": 0.8, "n_px_0o25": 274, "n_px_0o1": 44, "thumbnail": "data/raster/seedling_thumbnails/2025/B4_G_PSEMEN_adult4.png" }, "geometry": { "type": "Point", "coordinates": [ -113.94443939, 46.75377907 ] } },
{ "type": "Feature", "properties": { "idx": 28, "Name": "B4_G_PSEMEN_S3_seedling", "code_desc": "Point", "note": null, "ndvi_0o25": 0.41957041621208191, "ndvi_0o1": 0.46216988563537598, "shadow_idx": 0.73810911178588867, "gps_rms_m": 0.019, "tilt_deg": 4.8, "n_px_0o25": 277, "n_px_0o1": 46, "thumbnail": "data/raster/seedling_thumbnails/2025/B4_G_PSEMEN_S3_seedling.png" }, "geometry": { "type": "Point", "coordinates": [ -113.94432778, 46.7538653 ] } },
{ "type": "Feature", "properties": { "idx": 29, "Name": "B4_G_PICENG_T3_seedling", "code_desc": "Point", "note": null, "ndvi_0o25": -0.23945794999599457, "ndvi_0o1": -0.21628320217132568, "shadow_idx": 0.71271491050720215, "gps_rms_m": 0.018, "tilt_deg": 1.5, "n_px_0o25": 276, "n_px_0o1": 46, "thumbnail": "data/raster/seedling_thumbnails/2025/B4_G_PICENG_T3_seedling.png" }, "geometry": { "type": "Point", "coordinates": [ -113.94434512, 46.75385837 ] } },
{ "type": "Feature", "properties": { "idx": 30, "Name": "B4_G_PSEMEN_T3_seedling", "code_desc": "Point", "note": null, "ndvi_0o25": -0.33812078833580017, "ndvi_0o1": -0.26575642824172974, "shadow_idx": 0.70624017715454102, "gps_rms_m": 0.018, "tilt_deg": 2.3, "n_px_0o25": 275, "n_px_0o1": 47, "thumbnail": "data/raster/seedling_thumbnails/2025/B4_G_PSEMEN_T3_seedling.png" }, "geometry": { "type": "Point", "coordinates": [ -113.94434248, 46.75385664 ] } },
{ "type": "Feature", "properties": { "idx": 31, "Name": "B4_G_PICENG_S3_seedling", "code_desc": "Point", "note": null, "ndvi_0o25": 0.47180932760238647, "ndvi_0o1": 0.49884068965911865, "shadow_idx": 0.73678749799728394, "gps_rms_m": 0.018, "tilt_deg": 3.2, "n_px_0o25": 274, "n_px_0o1": 44, "thumbnail": "data/raster/seedling_thumbnails/2025/B4_G_PICENG_S3_seedling.png" }, "geometry": { "type": "Point", "coordinates": [ -113.94432882, 46.75386418 ] } },
{ "type": "Feature", "properties": { "idx": 32, "Name": "B4_G_PSEMEN_adult5", "code_desc": "Point", "note": null, "ndvi_0o25": 0.23867547512054443, "ndvi_0o1": 0.19435164332389832, "shadow_idx": 0.71447819471359253, "gps_rms_m": 0.018, "tilt_deg": 2.3, "n_px_0o25": 274, "n_px_0o1": 47, "thumbnail": "data/raster/seedling_thumbnails/2025/B4_G_PSEMEN_adult5.png" }, "geometry": { "type": "Point", "coordinates": [ -113.94429485, 46.75385368 ] } },
{ "type": "Feature", "properties": { "idx": 33, "Name": "B4_G_PSEMEN_adult6", "code_desc": "Point", "note": null, "ndvi_0o25": 0.32176682353019714, "ndvi_0o1": 0.31696602702140808, "shadow_idx": 0.77270358800888062, "gps_rms_m": 0.029, "tilt_deg": 16.5, "n_px_0o25": 277, "n_px_0o1": 45, "thumbnail": "data/raster/seedling_thumbnails/2025/B4_G_PSEMEN_adult6.png" }, "geometry": { "type": "Point", "coordinates": [ -113.94426986, 46.75388915 ] } },
{ "type": "Feature", "properties": { "idx": 34, "Name": "B4_G_PSEMEN_adult7", "code_desc": "Point", "note": null, "ndvi_0o25": 0.25361508131027222, "ndvi_0o1": 0.26225164532661438, "shadow_idx": 0.81090140342712402, "gps_rms_m": 0.02, "tilt_deg": 4.1, "n_px_0o25": 278, "n_px_0o1": 44, "thumbnail": "data/raster/seedling_thumbnails/2025/B4_G_PSEMEN_adult7.png" }, "geometry": { "type": "Point", "coordinates": [ -113.94425515, 46.75387602 ] } },
{ "type": "Feature", "properties": { "idx": 35, "Name": "B4_G_PSEMEN_adult8", "code_desc": "Point", "note": null, "ndvi_0o25": 0.39053705334663391, "ndvi_0o1": 0.47415965795516968, "shadow_idx": 0.71553564071655273, "gps_rms_m": 0.019, "tilt_deg": 3.1, "n_px_0o25": 277, "n_px_0o1": 42, "thumbnail": "data/raster/seedling_thumbnails/2025/B4_G_PSEMEN_adult8.png" }, "geometry": { "type": "Point", "coordinates": [ -113.94428346, 46.75392157 ] } },
{ "type": "Feature", "properties": { "idx": 36, "Name": "B4_G_PSEMEN_adult9", "code_desc": "Point", "note": null, "ndvi_0o25": 0.19420044124126434, "ndvi_0o1": 0.2150273472070694, "shadow_idx": 0.82438349723815918, "gps_rms_m": 0.022, "tilt_deg": 3.1, "n_px_0o25": 282, "n_px_0o1": 43, "thumbnail": "data/raster/seedling_thumbnails/2025/B4_G_PSEMEN_adult9.png" }, "geometry": { "type": "Point", "coordinates": [ -113.94423309, 46.75390725 ] } },
{ "type": "Feature", "properties": { "idx": 37, "Name": "B4_G_PSEMEN_adult10", "code_desc": "Point", "note": "close to B3", "ndvi_0o25": 0.45647117495536804, "ndvi_0o1": 0.48447290062904358, "shadow_idx": 0.73804169893264771, "gps_rms_m": 0.018, "tilt_deg": 2.4, "n_px_0o25": 279, "n_px_0o1": 43, "thumbnail": "data/raster/seedling_thumbnails/2025/B4_G_PSEMEN_adult10.png" }, "geometry": { "type": "Point", "coordinates": [ -113.94423342, 46.75396264 ] } },
{ "type": "Feature", "properties": { "idx": 38, "Name": "B3_G_PSEMEN_adult", "code_desc": "Point", "note": null, "ndvi_0o25": 0.36454287171363831, "ndvi_0o1": 0.41992661356925964, "shadow_idx": 0.75663143396377563, "gps_rms_m": 0.022, "tilt_deg": 4.3, "n_px_0o25": 281, "n_px_0o1": 43, "thumbnail": "data/raster/seedling_thumbnails/2025/B3_G_PSEMEN_adult.png" }, "geometry": { "type": "Point", "coordinates": [ -113.94421648, 46.75404063 ] } },
{ "type": "Feature", "properties": { "idx": 39, "Name": "B3_G_PSEMEN_adult1", "code_desc": "Point", "note": null, "ndvi_0o25": 0.22124452888965607, "ndvi_0o1": 0.14274238049983978, "shadow_idx": 0.77779173851013184, "gps_rms_m": 0.021, "tilt_deg": 4.6, "n_px_0o25": 275, "n_px_0o1": 46, "thumbnail": "data/raster/seedling_thumbnails/2025/B3_G_PSEMEN_adult1.png" }, "geometry": { "type": "Point", "coordinates": [ -113.94422825, 46.75405895 ] } },
{ "type": "Feature", "properties": { "idx": 40, "Name": "B3_G_PICENG_adult", "code_desc": "Point", "note": null, "ndvi_0o25": 0.20113584399223328, "ndvi_0o1": 0.18581099808216095, "shadow_idx": 0.77795249223709106, "gps_rms_m": 0.02, "tilt_deg": 6.8, "n_px_0o25": 274, "n_px_0o1": 47, "thumbnail": "data/raster/seedling_thumbnails/2025/B3_G_PICENG_adult.png" }, "geometry": { "type": "Point", "coordinates": [ -113.94422144, 46.75406832 ] } },
{ "type": "Feature", "properties": { "idx": 41, "Name": "B3_G_PINPON_R1_seedlings", "code_desc": "Point", "note": null, "ndvi_0o25": 0.46459764242172241, "ndvi_0o1": 0.5328831672668457, "shadow_idx": 0.77291715145111084, "gps_rms_m": 0.018, "tilt_deg": 2.2, "n_px_0o25": 280, "n_px_0o1": 43, "thumbnail": "data/raster/seedling_thumbnails/2025/B3_G_PINPON_R1_seedlings.png" }, "geometry": { "type": "Point", "coordinates": [ -113.94420794, 46.75408102 ] } },
{ "type": "Feature", "properties": { "idx": 42, "Name": "B3_G_PINPON_R2_seedlings1", "code_desc": "Point", "note": null, "ndvi_0o25": 0.23239468038082123, "ndvi_0o1": 0.18553224205970764, "shadow_idx": 0.767569899559021, "gps_rms_m": 0.018, "tilt_deg": 2.3, "n_px_0o25": 276, "n_px_0o1": 46, "thumbnail": "data/raster/seedling_thumbnails/2025/B3_G_PINPON_R2_seedlings1.png" }, "geometry": { "type": "Point", "coordinates": [ -113.9442355, 46.75404886 ] } },
{ "type": "Feature", "properties": { "idx": 43, "Name": "B3_G_PSEMEN_S1_seedling", "code_desc": "Point", "note": null, "ndvi_0o25": 0.31048452854156494, "ndvi_0o1": 0.29570212960243225, "shadow_idx": 0.76022231578826904, "gps_rms_m": 0.028, "tilt_deg": 7.6, "n_px_0o25": 277, "n_px_0o1": 47, "thumbnail": "data/raster/seedling_thumbnails/2025/B3_G_PSEMEN_S1_seedling.png" }, "geometry": { "type": "Point", "coordinates": [ -113.94423057, 46.75404468 ] } },
{ "type": "Feature", "properties": { "idx": 44, "Name": "B3_G_PSEMEN_T1_seedling", "code_desc": "Point", "note": null, "ndvi_0o25": 0.28996208310127258, "ndvi_0o1": 0.34278535842895508, "shadow_idx": 0.75786679983139038, "gps_rms_m": 0.033, "tilt_deg": 62.5, "n_px_0o25": 277, "n_px_0o1": 43, "thumbnail": "data/raster/seedling_thumbnails/2025/B3_G_PSEMEN_T1_seedling.png" }, "geometry": { "type": "Point", "coordinates": [ -113.94425067, 46.75406573 ] } },
{ "type": "Feature", "properties": { "idx": 45, "Name": "B3_C_PSEMEN_adult", "code_desc": "Point", "note": null, "ndvi_0o25": 0.088898353278636932, "ndvi_0o1": 0.073603041470050812, "shadow_idx": 0.8058013916015625, "gps_rms_m": 0.021, "tilt_deg": 10.9, "n_px_0o25": 280, "n_px_0o1": 44, "thumbnail": "data/raster/seedling_thumbnails/2025/B3_C_PSEMEN_adult.png" }, "geometry": { "type": "Point", "coordinates": [ -113.94415433, 46.75420368 ] } },
{ "type": "Feature", "properties": { "idx": 46, "Name": "B3_C_PSEMEN_adult1", "code_desc": "Point", "note": null, "ndvi_0o25": 0.47511604428291321, "ndvi_0o1": 0.48302158713340759, "shadow_idx": 0.80939841270446777, "gps_rms_m": 0.021, "tilt_deg": 10.5, "n_px_0o25": 278, "n_px_0o1": 43, "thumbnail": "data/raster/seedling_thumbnails/2025/B3_C_PSEMEN_adult1.png" }, "geometry": { "type": "Point", "coordinates": [ -113.94415405, 46.75423369 ] } },
{ "type": "Feature", "properties": { "idx": 47, "Name": "B3_C_PSEMEN_adult2", "code_desc": "Point", "note": null, "ndvi_0o25": 0.2515125572681427, "ndvi_0o1": 0.24324096739292145, "shadow_idx": 0.8321651816368103, "gps_rms_m": 0.023, "tilt_deg": 11.4, "n_px_0o25": 282, "n_px_0o1": 45, "thumbnail": "data/raster/seedling_thumbnails/2025/B3_C_PSEMEN_adult2.png" }, "geometry": { "type": "Point", "coordinates": [ -113.94416778, 46.75426221 ] } },
{ "type": "Feature", "properties": { "idx": 48, "Name": "B3_C_PSEMEN_adult3", "code_desc": "Point", "note": null, "ndvi_0o25": 0.50949877500534058, "ndvi_0o1": 0.54191756248474121, "shadow_idx": 0.75391209125518799, "gps_rms_m": 0.033, "tilt_deg": 62.6, "n_px_0o25": 278, "n_px_0o1": 44, "thumbnail": "data/raster/seedling_thumbnails/2025/B3_C_PSEMEN_adult3.png" }, "geometry": { "type": "Point", "coordinates": [ -113.94412041, 46.75428488 ] } },
{ "type": "Feature", "properties": { "idx": 49, "Name": "B3_C_PSEMEN_adult4", "code_desc": "Point", "note": null, "ndvi_0o25": 0.46629253029823303, "ndvi_0o1": 0.46669557690620422, "shadow_idx": 0.77454072237014771, "gps_rms_m": 0.02, "tilt_deg": 11.0, "n_px_0o25": 281, "n_px_0o1": 45, "thumbnail": "data/raster/seedling_thumbnails/2025/B3_C_PSEMEN_adult4.png" }, "geometry": { "type": "Point", "coordinates": [ -113.94410263, 46.75430577 ] } },
{ "type": "Feature", "properties": { "idx": 50, "Name": "B3_C_PSEMEN_adult5", "code_desc": "Point", "note": null, "ndvi_0o25": 0.24977308511734009, "ndvi_0o1": 0.25028407573699951, "shadow_idx": 0.61939948797225952, "gps_rms_m": 0.021, "tilt_deg": 5.9, "n_px_0o25": 275, "n_px_0o1": 44, "thumbnail": "data/raster/seedling_thumbnails/2025/B3_C_PSEMEN_adult5.png" }, "geometry": { "type": "Point", "coordinates": [ -113.94410464, 46.75423772 ] } },
{ "type": "Feature", "properties": { "idx": 51, "Name": "B3_C_PICENG_adult", "code_desc": "Point", "note": null, "ndvi_0o25": 0.4720383882522583, "ndvi_0o1": 0.47098976373672485, "shadow_idx": 0.49993380904197693, "gps_rms_m": 0.021, "tilt_deg": 4.0, "n_px_0o25": 282, "n_px_0o1": 45, "thumbnail": "data/raster/seedling_thumbnails/2025/B3_C_PICENG_adult.png" }, "geometry": { "type": "Point", "coordinates": [ -113.94407717, 46.75433914 ] } },
{ "type": "Feature", "properties": { "idx": 52, "Name": "B3_C_PICENG_adult1", "code_desc": "Point", "note": null, "ndvi_0o25": 0.40588656067848206, "ndvi_0o1": 0.46108293533325195, "shadow_idx": 0.69266855716705322, "gps_rms_m": 0.027, "tilt_deg": 3.8, "n_px_0o25": 276, "n_px_0o1": 47, "thumbnail": "data/raster/seedling_thumbnails/2025/B3_C_PICENG_adult1.png" }, "geometry": { "type": "Point", "coordinates": [ -113.94404502, 46.75437937 ] } },
{ "type": "Feature", "properties": { "idx": 53, "Name": "B3_C_PICENG_adult2", "code_desc": "Point", "note": null, "ndvi_0o25": 0.43199145793914795, "ndvi_0o1": 0.42579400539398193, "shadow_idx": 0.73934543132781982, "gps_rms_m": 0.052, "tilt_deg": 78.5, "n_px_0o25": 277, "n_px_0o1": 45, "thumbnail": "data/raster/seedling_thumbnails/2025/B3_C_PICENG_adult2.png" }, "geometry": { "type": "Point", "coordinates": [ -113.94404651, 46.75438923 ] } },
{ "type": "Feature", "properties": { "idx": 54, "Name": "B3_C_PSEMEN_adult7", "code_desc": "Point", "note": null, "ndvi_0o25": 0.52544355392456055, "ndvi_0o1": 0.53397440910339355, "shadow_idx": 0.62823188304901123, "gps_rms_m": 0.021, "tilt_deg": 11.2, "n_px_0o25": 275, "n_px_0o1": 44, "thumbnail": "data/raster/seedling_thumbnails/2025/B3_C_PSEMEN_adult7.png" }, "geometry": { "type": "Point", "coordinates": [ -113.94406151, 46.7543689 ] } },
{ "type": "Feature", "properties": { "idx": 55, "Name": "B3_C_PSEMEN_S1_seedling", "code_desc": "Point", "note": null, "ndvi_0o25": 0.27694085240364075, "ndvi_0o1": 0.28708270192146301, "shadow_idx": 0.85383296012878418, "gps_rms_m": 0.019, "tilt_deg": 3.3, "n_px_0o25": 282, "n_px_0o1": 44, "thumbnail": "data/raster/seedling_thumbnails/2025/B3_C_PSEMEN_S1_seedling.png" }, "geometry": { "type": "Point", "coordinates": [ -113.9441501, 46.75430134 ] } },
{ "type": "Feature", "properties": { "idx": 56, "Name": "B3_C_PICENG_S1_seedling", "code_desc": "Point", "note": null, "ndvi_0o25": 0.25921973586082458, "ndvi_0o1": 0.28778257966041565, "shadow_idx": 0.8555830717086792, "gps_rms_m": 0.019, "tilt_deg": 7.5, "n_px_0o25": 275, "n_px_0o1": 44, "thumbnail": "data/raster/seedling_thumbnails/2025/B3_C_PICENG_S1_seedling.png" }, "geometry": { "type": "Point", "coordinates": [ -113.94416743, 46.75429732 ] } },
{ "type": "Feature", "properties": { "idx": 57, "Name": "B3_C_PICENG_T1_seedling", "code_desc": "Point", "note": null, "ndvi_0o25": 0.31617063283920288, "ndvi_0o1": 0.3318767249584198, "shadow_idx": 0.84460830688476562, "gps_rms_m": 0.019, "tilt_deg": 3.6, "n_px_0o25": 277, "n_px_0o1": 43, "thumbnail": "data/raster/seedling_thumbnails/2025/B3_C_PICENG_T1_seedling.png" }, "geometry": { "type": "Point", "coordinates": [ -113.94416144, 46.75428792 ] } },
{ "type": "Feature", "properties": { "idx": 58, "Name": "B3_C_PSEMEN_T1_seedling", "code_desc": "Point", "note": null, "ndvi_0o25": 0.32188683748245239, "ndvi_0o1": 0.36349132657051086, "shadow_idx": 0.85070466995239258, "gps_rms_m": 0.019, "tilt_deg": 6.4, "n_px_0o25": 283, "n_px_0o1": 45, "thumbnail": "data/raster/seedling_thumbnails/2025/B3_C_PSEMEN_T1_seedling.png" }, "geometry": { "type": "Point", "coordinates": [ -113.9441654, 46.75428771 ] } },
{ "type": "Feature", "properties": { "idx": 59, "Name": "B3_C_PINCON_R1_seedlings", "code_desc": "Point", "note": null, "ndvi_0o25": 0.31854474544525146, "ndvi_0o1": 0.36255881190299988, "shadow_idx": 0.84831994771957397, "gps_rms_m": 0.019, "tilt_deg": 6.6, "n_px_0o25": 278, "n_px_0o1": 42, "thumbnail": "data/raster/seedling_thumbnails/2025/B3_C_PINCON_R1_seedlings.png" }, "geometry": { "type": "Point", "coordinates": [ -113.94416965, 46.75428022 ] } },
{ "type": "Feature", "properties": { "idx": 60, "Name": "B3_C_PINCON_R2_seedlings1", "code_desc": "Point", "note": null, "ndvi_0o25": 0.43996259570121765, "ndvi_0o1": 0.46312931180000305, "shadow_idx": 0.79295170307159424, "gps_rms_m": 0.019, "tilt_deg": 5.0, "n_px_0o25": 275, "n_px_0o1": 44, "thumbnail": "data/raster/seedling_thumbnails/2025/B3_C_PINCON_R2_seedlings1.png" }, "geometry": { "type": "Point", "coordinates": [ -113.94415624, 46.75425202 ] } },
{ "type": "Feature", "properties": { "idx": 61, "Name": "B3_C_PSEMEN_S2_seedling", "code_desc": "Point", "note": null, "ndvi_0o25": 0.37801516056060791, "ndvi_0o1": 0.38249918818473816, "shadow_idx": 0.78557109832763672, "gps_rms_m": 0.023, "tilt_deg": 17.3, "n_px_0o25": 277, "n_px_0o1": 45, "thumbnail": "data/raster/seedling_thumbnails/2025/B3_C_PSEMEN_S2_seedling.png" }, "geometry": { "type": "Point", "coordinates": [ -113.94414814, 46.75421838 ] } },
{ "type": "Feature", "properties": { "idx": 62, "Name": "B3_C_PSEMEN_T2_seedling", "code_desc": "Point", "note": null, "ndvi_0o25": 0.25711995363235474, "ndvi_0o1": 0.23682922124862671, "shadow_idx": 0.74796038866043091, "gps_rms_m": 0.028, "tilt_deg": 37.8, "n_px_0o25": 274, "n_px_0o1": 43, "thumbnail": "data/raster/seedling_thumbnails/2025/B3_C_PSEMEN_T2_seedling.png" }, "geometry": { "type": "Point", "coordinates": [ -113.94413981, 46.75422364 ] } },
{ "type": "Feature", "properties": { "idx": 63, "Name": "B3_C_PSEMEN_S3_seedling", "code_desc": "Point", "note": null, "ndvi_0o25": 0.28587108850479126, "ndvi_0o1": 0.28872025012969971, "shadow_idx": 0.78153663873672485, "gps_rms_m": 0.033, "tilt_deg": 53.9, "n_px_0o25": 283, "n_px_0o1": 45, "thumbnail": "data/raster/seedling_thumbnails/2025/B3_C_PSEMEN_S3_seedling.png" }, "geometry": { "type": "Point", "coordinates": [ -113.94421777, 46.75425832 ] } },
{ "type": "Feature", "properties": { "idx": 64, "Name": "B3_C_PSEMEN_T3_seedling", "code_desc": "Point", "note": null, "ndvi_0o25": 0.29775109887123108, "ndvi_0o1": 0.37080782651901245, "shadow_idx": 0.78574323654174805, "gps_rms_m": 0.019, "tilt_deg": 4.7, "n_px_0o25": 274, "n_px_0o1": 44, "thumbnail": "data/raster/seedling_thumbnails/2025/B3_C_PSEMEN_T3_seedling.png" }, "geometry": { "type": "Point", "coordinates": [ -113.9442142, 46.75425128 ] } },
{ "type": "Feature", "properties": { "idx": 65, "Name": "B2_C_PINPON_R2_seedlings", "code_desc": "Point", "note": null, "ndvi_0o25": 0.43382731080055237, "ndvi_0o1": 0.42494913935661316, "shadow_idx": 0.81144368648529053, "gps_rms_m": 0.02, "tilt_deg": 10.0, "n_px_0o25": 283, "n_px_0o1": 45, "thumbnail": "data/raster/seedling_thumbnails/2025/B2_C_PINPON_R2_seedlings.png" }, "geometry": { "type": "Point", "coordinates": [ -113.94393934, 46.75471999 ] } },
{ "type": "Feature", "properties": { "idx": 66, "Name": "B2_C_PSEMEN_adult", "code_desc": "Point", "note": null, "ndvi_0o25": 0.50446033477783203, "ndvi_0o1": 0.51724350452423096, "shadow_idx": 0.69532543420791626, "gps_rms_m": 0.022, "tilt_deg": 7.7, "n_px_0o25": 283, "n_px_0o1": 45, "thumbnail": "data/raster/seedling_thumbnails/2025/B2_C_PSEMEN_adult.png" }, "geometry": { "type": "Point", "coordinates": [ -113.94394755, 46.75470521 ] } },
{ "type": "Feature", "properties": { "idx": 67, "Name": "B2_C_PSEMEN_adult1", "code_desc": "Point", "note": null, "ndvi_0o25": 0.51204806566238403, "ndvi_0o1": 0.54172307252883911, "shadow_idx": 0.61262768507003784, "gps_rms_m": 0.032, "tilt_deg": 46.3, "n_px_0o25": 279, "n_px_0o1": 43, "thumbnail": "data/raster/seedling_thumbnails/2025/B2_C_PSEMEN_adult1.png" }, "geometry": { "type": "Point", "coordinates": [ -113.94395392, 46.75468118 ] } },
{ "type": "Feature", "properties": { "idx": 68, "Name": "B2_C_PSEMEN_adult2", "code_desc": "Point", "note": null, "ndvi_0o25": 0.48977157473564148, "ndvi_0o1": 0.54751855134963989, "shadow_idx": 0.63267183303833008, "gps_rms_m": 0.024, "tilt_deg": 4.0, "n_px_0o25": 279, "n_px_0o1": 43, "thumbnail": "data/raster/seedling_thumbnails/2025/B2_C_PSEMEN_adult2.png" }, "geometry": { "type": "Point", "coordinates": [ -113.94394275, 46.75467706 ] } },
{ "type": "Feature", "properties": { "idx": 69, "Name": "B2_C_PINCON_adult", "code_desc": "Point", "note": "weird", "ndvi_0o25": 0.28625470399856567, "ndvi_0o1": 0.28084325790405273, "shadow_idx": 0.79779016971588135, "gps_rms_m": 0.026, "tilt_deg": 22.6, "n_px_0o25": 277, "n_px_0o1": 47, "thumbnail": "data/raster/seedling_thumbnails/2025/B2_C_PINCON_adult.png" }, "geometry": { "type": "Point", "coordinates": [ -113.94382234, 46.75473732 ] } },
{ "type": "Feature", "properties": { "idx": 70, "Name": "B2_C_PSEMEN_adult3", "code_desc": "Point", "note": null, "ndvi_0o25": 0.093954101204872131, "ndvi_0o1": 0.10925393551588058, "shadow_idx": 0.6784253716468811, "gps_rms_m": 0.023, "tilt_deg": 17.0, "n_px_0o25": 274, "n_px_0o1": 44, "thumbnail": "data/raster/seedling_thumbnails/2025/B2_C_PSEMEN_adult3.png" }, "geometry": { "type": "Point", "coordinates": [ -113.94378195, 46.7547815 ] } },
{ "type": "Feature", "properties": { "idx": 71, "Name": "B2_C_PSEMEN_adult4", "code_desc": "Point", "note": null, "ndvi_0o25": 0.5567588210105896, "ndvi_0o1": 0.58038437366485596, "shadow_idx": 0.673056960105896, "gps_rms_m": 0.062, "tilt_deg": 41.7, "n_px_0o25": 275, "n_px_0o1": 45, "thumbnail": "data/raster/seedling_thumbnails/2025/B2_C_PSEMEN_adult4.png" }, "geometry": { "type": "Point", "coordinates": [ -113.94377246, 46.75481345 ] } },
{ "type": "Feature", "properties": { "idx": 72, "Name": "B2_C_PINPON_R1_seedlings", "code_desc": "Point", "note": null, "ndvi_0o25": 0.055906631052494049, "ndvi_0o1": 0.092733129858970642, "shadow_idx": 0.67612737417221069, "gps_rms_m": 0.019, "tilt_deg": 7.0, "n_px_0o25": 275, "n_px_0o1": 47, "thumbnail": "data/raster/seedling_thumbnails/2025/B2_C_PINPON_R1_seedlings.png" }, "geometry": { "type": "Point", "coordinates": [ -113.94380659, 46.75481735 ] } },
{ "type": "Feature", "properties": { "idx": 73, "Name": "B2_C_LAROCC_adult", "code_desc": "Point", "note": null, "ndvi_0o25": -0.037786677479743958, "ndvi_0o1": -0.052790820598602295, "shadow_idx": 0.53057181835174561, "gps_rms_m": 0.021, "tilt_deg": 13.3, "n_px_0o25": 280, "n_px_0o1": 43, "thumbnail": "data/raster/seedling_thumbnails/2025/B2_C_LAROCC_adult.png" }, "geometry": { "type": "Point", "coordinates": [ -113.94381444, 46.75489762 ] } },
{ "type": "Feature", "properties": { "idx": 74, "Name": "B2_C_PSEMEN_adult6", "code_desc": "Point", "note": null, "ndvi_0o25": 0.27655047178268433, "ndvi_0o1": 0.27533611655235291, "shadow_idx": 0.84629726409912109, "gps_rms_m": 0.037, "tilt_deg": 20.5, "n_px_0o25": 276, "n_px_0o1": 42, "thumbnail": "data/raster/seedling_thumbnails/2025/B2_C_PSEMEN_adult6.png" }, "geometry": { "type": "Point", "coordinates": [ -113.94373244, 46.75494025 ] } },
{ "type": "Feature", "properties": { "idx": 75, "Name": "B2_C_PINPON_adult", "code_desc": "Point", "note": null, "ndvi_0o25": 0.64994853734970093, "ndvi_0o1": 0.63088750839233398, "shadow_idx": 0.74580222368240356, "gps_rms_m": 0.024, "tilt_deg": 16.0, "n_px_0o25": 276, "n_px_0o1": 47, "thumbnail": "data/raster/seedling_thumbnails/2025/B2_C_PINPON_adult.png" }, "geometry": { "type": "Point", "coordinates": [ -113.94370113, 46.75497409 ] } },
{ "type": "Feature", "properties": { "idx": 76, "Name": "B2_C_PSEMEN_adult7", "code_desc": "Point", "note": null, "ndvi_0o25": 0.20517510175704956, "ndvi_0o1": 0.2054353654384613, "shadow_idx": 0.74798136949539185, "gps_rms_m": 0.021, "tilt_deg": 10.2, "n_px_0o25": 280, "n_px_0o1": 44, "thumbnail": "data/raster/seedling_thumbnails/2025/B2_C_PSEMEN_adult7.png" }, "geometry": { "type": "Point", "coordinates": [ -113.94364526, 46.75498049 ] } },
{ "type": "Feature", "properties": { "idx": 77, "Name": "B2_G_PSEMEN_adult", "code_desc": "Point", "note": null, "ndvi_0o25": 0.46965715289115906, "ndvi_0o1": 0.49321001768112183, "shadow_idx": 0.78975659608840942, "gps_rms_m": 0.023, "tilt_deg": 12.2, "n_px_0o25": 279, "n_px_0o1": 43, "thumbnail": "data/raster/seedling_thumbnails/2025/B2_G_PSEMEN_adult.png" }, "geometry": { "type": "Point", "coordinates": [ -113.94358125, 46.75502748 ] } },
{ "type": "Feature", "properties": { "idx": 78, "Name": "B2_G_PICENG_adult", "code_desc": "Point", "note": null, "ndvi_0o25": 0.39583873748779297, "ndvi_0o1": 0.41053265333175659, "shadow_idx": 0.81706476211547852, "gps_rms_m": 0.022, "tilt_deg": 15.2, "n_px_0o25": 275, "n_px_0o1": 47, "thumbnail": "data/raster/seedling_thumbnails/2025/B2_G_PICENG_adult.png" }, "geometry": { "type": "Point", "coordinates": [ -113.94353402, 46.75503814 ] } },
{ "type": "Feature", "properties": { "idx": 79, "Name": "B2_G_PICENG_adult1", "code_desc": "Point", "note": null, "ndvi_0o25": 0.31591880321502686, "ndvi_0o1": 0.31123819947242737, "shadow_idx": 0.4734213650226593, "gps_rms_m": 0.022, "tilt_deg": 12.6, "n_px_0o25": 275, "n_px_0o1": 43, "thumbnail": "data/raster/seedling_thumbnails/2025/B2_G_PICENG_adult1.png" }, "geometry": { "type": "Point", "coordinates": [ -113.94348512, 46.75509809 ] } },
{ "type": "Feature", "properties": { "idx": 80, "Name": "B2_G_PSEMEN_adult1", "code_desc": "Point", "note": null, "ndvi_0o25": 0.3807988166809082, "ndvi_0o1": 0.38501137495040894, "shadow_idx": 0.76936870813369751, "gps_rms_m": 0.029, "tilt_deg": 38.6, "n_px_0o25": 280, "n_px_0o1": 43, "thumbnail": "data/raster/seedling_thumbnails/2025/B2_G_PSEMEN_adult1.png" }, "geometry": { "type": "Point", "coordinates": [ -113.94354736, 46.75513735 ] } },
{ "type": "Feature", "properties": { "idx": 81, "Name": "B2_G_PSEMEN_adult2", "code_desc": "Point", "note": null, "ndvi_0o25": 0.41018638014793396, "ndvi_0o1": 0.41604182124137878, "shadow_idx": 0.68975311517715454, "gps_rms_m": 0.03, "tilt_deg": 45.9, "n_px_0o25": 279, "n_px_0o1": 44, "thumbnail": "data/raster/seedling_thumbnails/2025/B2_G_PSEMEN_adult2.png" }, "geometry": { "type": "Point", "coordinates": [ -113.94359063, 46.75512799 ] } },
{ "type": "Feature", "properties": { "idx": 82, "Name": "B2_G_PSEMEN_adult3", "code_desc": "Point", "note": null, "ndvi_0o25": 0.16090106964111328, "ndvi_0o1": 0.16305132210254669, "shadow_idx": 0.75128173828125, "gps_rms_m": 0.065, "tilt_deg": 57.6, "n_px_0o25": 278, "n_px_0o1": 42, "thumbnail": "data/raster/seedling_thumbnails/2025/B2_G_PSEMEN_adult3.png" }, "geometry": { "type": "Point", "coordinates": [ -113.94365335, 46.75518299 ] } },
{ "type": "Feature", "properties": { "idx": 83, "Name": "B2_G_PSEMEN_adult4", "code_desc": "Point", "note": null, "ndvi_0o25": 0.13360391557216644, "ndvi_0o1": 0.079140350222587585, "shadow_idx": 0.79223531484603882, "gps_rms_m": 0.031, "tilt_deg": 30.9, "n_px_0o25": 279, "n_px_0o1": 43, "thumbnail": "data/raster/seedling_thumbnails/2025/B2_G_PSEMEN_adult4.png" }, "geometry": { "type": "Point", "coordinates": [ -113.94363781, 46.75509111 ] } },
{ "type": "Feature", "properties": { "idx": 84, "Name": "B2_G_PINPON_R2_seedlings", "code_desc": "Point", "note": null, "ndvi_0o25": 0.25061747431755066, "ndvi_0o1": 0.34470465779304504, "shadow_idx": 0.80815553665161133, "gps_rms_m": 0.019, "tilt_deg": 2.0, "n_px_0o25": 278, "n_px_0o1": 43, "thumbnail": "data/raster/seedling_thumbnails/2025/B2_G_PINPON_R2_seedlings.png" }, "geometry": { "type": "Point", "coordinates": [ -113.94360099, 46.7551456 ] } },
{ "type": "Feature", "properties": { "idx": 85, "Name": "B2_G_PINPON_R1_seedlings1", "code_desc": "Point", "note": null, "ndvi_0o25": 0.031645044684410095, "ndvi_0o1": 0.023185381665825844, "shadow_idx": 0.82945865392684937, "gps_rms_m": 0.025, "tilt_deg": 4.5, "n_px_0o25": 276, "n_px_0o1": 48, "thumbnail": "data/raster/seedling_thumbnails/2025/B2_G_PINPON_R1_seedlings1.png" }, "geometry": { "type": "Point", "coordinates": [ -113.94362739, 46.75517556 ] } },
{ "type": "Feature", "properties": { "idx": 86, "Name": "B2_G_PSEMEN_S1_seedling", "code_desc": "Point", "note": null, "ndvi_0o25": 0.22504188120365143, "ndvi_0o1": 0.20910300314426422, "shadow_idx": 0.88241231441497803, "gps_rms_m": 0.026, "tilt_deg": 3.3, "n_px_0o25": 276, "n_px_0o1": 44, "thumbnail": "data/raster/seedling_thumbnails/2025/B2_G_PSEMEN_S1_seedling.png" }, "geometry": { "type": "Point", "coordinates": [ -113.94353513, 46.75518676 ] } },
{ "type": "Feature", "properties": { "idx": 87, "Name": "B2_G_PSEMEN_T1_seedling", "code_desc": "Point", "note": null, "ndvi_0o25": 0.25745072960853577, "ndvi_0o1": 0.3049197793006897, "shadow_idx": 0.87400287389755249, "gps_rms_m": 0.021, "tilt_deg": 4.7, "n_px_0o25": 280, "n_px_0o1": 42, "thumbnail": "data/raster/seedling_thumbnails/2025/B2_G_PSEMEN_T1_seedling.png" }, "geometry": { "type": "Point", "coordinates": [ -113.94353233, 46.75519572 ] } },
{ "type": "Feature", "properties": { "idx": 88, "Name": "B1_G_PSEMEN_T1_seedling1", "code_desc": "Point", "note": null, "ndvi_0o25": 0.075367055833339691, "ndvi_0o1": 0.054186951369047165, "shadow_idx": 0.81504052877426147, "gps_rms_m": 0.019, "tilt_deg": 3.8, "n_px_0o25": 279, "n_px_0o1": 44, "thumbnail": "data/raster/seedling_thumbnails/2025/B1_G_PSEMEN_T1_seedling1.png" }, "geometry": { "type": "Point", "coordinates": [ -113.9435095, 46.75523167 ] } },
{ "type": "Feature", "properties": { "idx": 89, "Name": "B1_G_PSEMEN_S1_seedling", "code_desc": "Point", "note": null, "ndvi_0o25": 0.23827686905860901, "ndvi_0o1": 0.2859531044960022, "shadow_idx": 0.85129135847091675, "gps_rms_m": 0.022, "tilt_deg": 15.4, "n_px_0o25": 279, "n_px_0o1": 43, "thumbnail": "data/raster/seedling_thumbnails/2025/B1_G_PSEMEN_S1_seedling.png" }, "geometry": { "type": "Point", "coordinates": [ -113.94352878, 46.75523381 ] } },
{ "type": "Feature", "properties": { "idx": 90, "Name": "B1_G_PINCON_adult", "code_desc": "Point", "note": null, "ndvi_0o25": 0.28287005424499512, "ndvi_0o1": 0.24027884006500244, "shadow_idx": 0.55064201354980469, "gps_rms_m": 0.024, "tilt_deg": 26.1, "n_px_0o25": 275, "n_px_0o1": 46, "thumbnail": "data/raster/seedling_thumbnails/2025/B1_G_PINCON_adult.png" }, "geometry": { "type": "Point", "coordinates": [ -113.94346393, 46.75521265 ] } },
{ "type": "Feature", "properties": { "idx": 91, "Name": "B1_G_PICENG_adult", "code_desc": "Point", "note": null, "ndvi_0o25": 0.30466651916503906, "ndvi_0o1": 0.31270205974578857, "shadow_idx": 0.6813206672668457, "gps_rms_m": 0.032, "tilt_deg": 12.1, "n_px_0o25": 274, "n_px_0o1": 44, "thumbnail": "data/raster/seedling_thumbnails/2025/B1_G_PICENG_adult.png" }, "geometry": { "type": "Point", "coordinates": [ -113.94345608, 46.75523792 ] } },
{ "type": "Feature", "properties": { "idx": 92, "Name": "B1_G_PICENG_adult1", "code_desc": "Point", "note": null, "ndvi_0o25": 0.27030691504478455, "ndvi_0o1": 0.13095520436763763, "shadow_idx": 0.72287857532501221, "gps_rms_m": 0.031, "tilt_deg": 44.9, "n_px_0o25": 276, "n_px_0o1": 44, "thumbnail": "data/raster/seedling_thumbnails/2025/B1_G_PICENG_adult1.png" }, "geometry": { "type": "Point", "coordinates": [ -113.94346807, 46.75527882 ] } },
{ "type": "Feature", "properties": { "idx": 93, "Name": "B1_G_PSEMEN_adult", "code_desc": "Point", "note": null, "ndvi_0o25": 0.14442726969718933, "ndvi_0o1": 0.14194929599761963, "shadow_idx": 0.79820889234542847, "gps_rms_m": 0.026, "tilt_deg": 14.1, "n_px_0o25": 276, "n_px_0o1": 46, "thumbnail": "data/raster/seedling_thumbnails/2025/B1_G_PSEMEN_adult.png" }, "geometry": { "type": "Point", "coordinates": [ -113.94357559, 46.7552997 ] } },
{ "type": "Feature", "properties": { "idx": 94, "Name": "B1_G_PINPON_R1_seedlings", "code_desc": "Point", "note": null, "ndvi_0o25": 0.21511313319206238, "ndvi_0o1": 0.21335914731025696, "shadow_idx": 0.81452798843383789, "gps_rms_m": 0.036, "tilt_deg": 10.9, "n_px_0o25": 280, "n_px_0o1": 43, "thumbnail": "data/raster/seedling_thumbnails/2025/B1_G_PINPON_R1_seedlings.png" }, "geometry": { "type": "Point", "coordinates": [ -113.94358249, 46.75528924 ] } },
{ "type": "Feature", "properties": { "idx": 95, "Name": "B1_G_PINPON_R2_seedlings", "code_desc": "Point", "note": null, "ndvi_0o25": 0.18004061281681061, "ndvi_0o1": 0.22035376727581024, "shadow_idx": 0.75611549615859985, "gps_rms_m": 0.02, "tilt_deg": 4.4, "n_px_0o25": 276, "n_px_0o1": 45, "thumbnail": "data/raster/seedling_thumbnails/2025/B1_G_PINPON_R2_seedlings.png" }, "geometry": { "type": "Point", "coordinates": [ -113.94348753, 46.75529855 ] } },
{ "type": "Feature", "properties": { "idx": 96, "Name": "B1_G_PSEMEN_S2_seedling", "code_desc": "Point", "note": null, "ndvi_0o25": 0.20029860734939575, "ndvi_0o1": 0.28167545795440674, "shadow_idx": 0.89073437452316284, "gps_rms_m": 0.031, "tilt_deg": 42.0, "n_px_0o25": 283, "n_px_0o1": 45, "thumbnail": "data/raster/seedling_thumbnails/2025/B1_G_PSEMEN_S2_seedling.png" }, "geometry": { "type": "Point", "coordinates": [ -113.94345569, 46.75535845 ] } },
{ "type": "Feature", "properties": { "idx": 97, "Name": "B1_G_PICENG_S2_seedling", "code_desc": "Point", "note": null, "ndvi_0o25": 0.25764381885528564, "ndvi_0o1": 0.28070661425590515, "shadow_idx": 0.85866045951843262, "gps_rms_m": 0.021, "tilt_deg": 9.7, "n_px_0o25": 276, "n_px_0o1": 44, "thumbnail": "data/raster/seedling_thumbnails/2025/B1_G_PICENG_S2_seedling.png" }, "geometry": { "type": "Point", "coordinates": [ -113.94348421, 46.75536418 ] } },
{ "type": "Feature", "properties": { "idx": 98, "Name": "B1_G_PSEMEN_adult1", "code_desc": "Point", "note": null, "ndvi_0o25": -0.12717103958129883, "ndvi_0o1": -0.090790487825870514, "shadow_idx": 0.67415893077850342, "gps_rms_m": 0.665, "tilt_deg": 29.5, "n_px_0o25": 274, "n_px_0o1": 47, "thumbnail": "data/raster/seedling_thumbnails/2025/B1_G_PSEMEN_adult1.png" }, "geometry": { "type": "Point", "coordinates": [ -113.94368272, 46.75537488 ] } },
{ "type": "Feature", "properties": { "idx": 99, "Name": "B1_G_PICENG_T2_seedling", "code_desc": "Point", "note": null, "ndvi_0o25": 0.24440129101276398, "ndvi_0o1": 0.26016637682914734, "shadow_idx": 0.84077936410903931, "gps_rms_m": 0.024, "tilt_deg": 22.9, "n_px_0o25": 278, "n_px_0o1": 43, "thumbnail": "data/raster/seedling_thumbnails/2025/B1_G_PICENG_T2_seedling.png" }, "geometry": { "type": "Point", "coordinates": [ -113.94349247, 46.75532759 ] } },
{ "type": "Feature", "properties": { "idx": 100, "Name": "B1_G_PSEMEN_T2_seedling", "code_desc": "Point", "note": null, "ndvi_0o25": 0.22821389138698578, "ndvi_0o1": 0.26510637998580933, "shadow_idx": 0.81767839193344116, "gps_rms_m": 0.021, "tilt_deg": 12.5, "n_px_0o25": 274, "n_px_0o1": 44, "thumbnail": "data/raster/seedling_thumbnails/2025/B1_G_PSEMEN_T2_seedling.png" }, "geometry": { "type": "Point", "coordinates": [ -113.94349469, 46.75531627 ] } },
{ "type": "Feature", "properties": { "idx": 101, "Name": "B1_G_PICENG_adult2", "code_desc": "Point", "note": null, "ndvi_0o25": 0.36966097354888916, "ndvi_0o1": 0.34439018368721008, "shadow_idx": 0.89675796031951904, "gps_rms_m": 0.028, "tilt_deg": 33.7, "n_px_0o25": 283, "n_px_0o1": 44, "thumbnail": "data/raster/seedling_thumbnails/2025/B1_G_PICENG_adult2.png" }, "geometry": { "type": "Point", "coordinates": [ -113.94345073, 46.75533347 ] } },
{ "type": "Feature", "properties": { "idx": 102, "Name": "B1_C_PSEMEN_adult", "code_desc": "Point", "note": null, "ndvi_0o25": 0.22306923568248749, "ndvi_0o1": 0.2217237800359726, "shadow_idx": 0.88041812181472778, "gps_rms_m": 0.03, "tilt_deg": 50.8, "n_px_0o25": 274, "n_px_0o1": 44, "thumbnail": "data/raster/seedling_thumbnails/2025/B1_C_PSEMEN_adult.png" }, "geometry": { "type": "Point", "coordinates": [ -113.94348009, 46.75549867 ] } },
{ "type": "Feature", "properties": { "idx": 103, "Name": "B1_C_PSEMEN_adult1", "code_desc": "Point", "note": null, "ndvi_0o25": 0.43198302388191223, "ndvi_0o1": 0.42799380421638489, "shadow_idx": 0.56149840354919434, "gps_rms_m": 0.052, "tilt_deg": 41.3, "n_px_0o25": 275, "n_px_0o1": 45, "thumbnail": "data/raster/seedling_thumbnails/2025/B1_C_PSEMEN_adult1.png" }, "geometry": { "type": "Point", "coordinates": [ -113.94343763, 46.75558742 ] } },
{ "type": "Feature", "properties": { "idx": 104, "Name": "B1_C_PSEMEN_adult2", "code_desc": "Point", "note": null, "ndvi_0o25": 0.32445642352104187, "ndvi_0o1": 0.29635408520698547, "shadow_idx": 0.62776648998260498, "gps_rms_m": 0.113, "tilt_deg": 65.0, "n_px_0o25": 283, "n_px_0o1": 44, "thumbnail": "data/raster/seedling_thumbnails/2025/B1_C_PSEMEN_adult2.png" }, "geometry": { "type": "Point", "coordinates": [ -113.94333436, 46.75552174 ] } },
{ "type": "Feature", "properties": { "idx": 105, "Name": "B1_C_PINPON_R2_seedlings", "code_desc": "Point", "note": null, "ndvi_0o25": -0.0010688877664506435, "ndvi_0o1": -0.012751821428537369, "shadow_idx": 0.51639753580093384, "gps_rms_m": 0.02, "tilt_deg": 2.7, "n_px_0o25": 283, "n_px_0o1": 44, "thumbnail": "data/raster/seedling_thumbnails/2025/B1_C_PINPON_R2_seedlings.png" }, "geometry": { "type": "Point", "coordinates": [ -113.94336201, 46.75553101 ] } },
{ "type": "Feature", "properties": { "idx": 106, "Name": "B1_C_PINPON_R1_seedlings", "code_desc": "Point", "note": null, "ndvi_0o25": -0.1081964373588562, "ndvi_0o1": -0.13837318122386932, "shadow_idx": 0.46568483114242554, "gps_rms_m": 0.024, "tilt_deg": 5.2, "n_px_0o25": 280, "n_px_0o1": 43, "thumbnail": "data/raster/seedling_thumbnails/2025/B1_C_PINPON_R1_seedlings.png" }, "geometry": { "type": "Point", "coordinates": [ -113.94341333, 46.75558218 ] } },
{ "type": "Feature", "properties": { "idx": 107, "Name": "B1_C_LAROCC_adult", "code_desc": "Point", "note": null, "ndvi_0o25": 0.20791439712047577, "ndvi_0o1": 0.29763025045394897, "shadow_idx": 0.59478586912155151, "gps_rms_m": 0.021, "tilt_deg": 8.1, "n_px_0o25": 276, "n_px_0o1": 47, "thumbnail": "data/raster/seedling_thumbnails/2025/B1_C_LAROCC_adult.png" }, "geometry": { "type": "Point", "coordinates": [ -113.94335446, 46.75562758 ] } },
{ "type": "Feature", "properties": { "idx": 108, "Name": "B1_C_PSEMEN_T1_seedling", "code_desc": "Point", "note": null, "ndvi_0o25": 0.29211950302124023, "ndvi_0o1": 0.3489605188369751, "shadow_idx": 0.86269396543502808, "gps_rms_m": 0.019, "tilt_deg": 4.4, "n_px_0o25": 274, "n_px_0o1": 44, "thumbnail": "data/raster/seedling_thumbnails/2025/B1_C_PSEMEN_T1_seedling.png" }, "geometry": { "type": "Point", "coordinates": [ -113.94327573, 46.75555006 ] } },
{ "type": "Feature", "properties": { "idx": 109, "Name": "B1_C_PSEMEN_T2_seedling1", "code_desc": "Point", "note": null, "ndvi_0o25": 0.237208291888237, "ndvi_0o1": 0.26428881287574768, "shadow_idx": 0.86361384391784668, "gps_rms_m": 0.032, "tilt_deg": 14.9, "n_px_0o25": 279, "n_px_0o1": 43, "thumbnail": "data/raster/seedling_thumbnails/2025/B1_C_PSEMEN_T2_seedling1.png" }, "geometry": { "type": "Point", "coordinates": [ -113.9432766, 46.75555373 ] } },
{ "type": "Feature", "properties": { "idx": 110, "Name": "B1_C_PSEMEN_S1_seedling", "code_desc": "Point", "note": null, "ndvi_0o25": 0.20374682545661926, "ndvi_0o1": 0.2533448338508606, "shadow_idx": 0.88372272253036499, "gps_rms_m": 0.02, "tilt_deg": 4.0, "n_px_0o25": 276, "n_px_0o1": 47, "thumbnail": "data/raster/seedling_thumbnails/2025/B1_C_PSEMEN_S1_seedling.png" }, "geometry": { "type": "Point", "coordinates": [ -113.94325668, 46.75554984 ] } },
{ "type": "Feature", "properties": { "idx": 111, "Name": "B1_C_PSEMEN_S2_seedling", "code_desc": "Point", "note": null, "ndvi_0o25": 0.22556696832180023, "ndvi_0o1": 0.28547748923301697, "shadow_idx": 0.87580585479736328, "gps_rms_m": 0.02, "tilt_deg": 7.3, "n_px_0o25": 280, "n_px_0o1": 43, "thumbnail": "data/raster/seedling_thumbnails/2025/B1_C_PSEMEN_S2_seedling.png" }, "geometry": { "type": "Point", "coordinates": [ -113.94326073, 46.75554687 ] } },
{ "type": "Feature", "properties": { "idx": 112, "Name": "B1_C_PSEMEN_S3_seedling", "code_desc": "Point", "note": null, "ndvi_0o25": 0.33927246928215027, "ndvi_0o1": 0.38238513469696045, "shadow_idx": 0.63669300079345703, "gps_rms_m": 0.033, "tilt_deg": 50.9, "n_px_0o25": 275, "n_px_0o1": 45, "thumbnail": "data/raster/seedling_thumbnails/2025/B1_C_PSEMEN_S3_seedling.png" }, "geometry": { "type": "Point", "coordinates": [ -113.94316794, 46.75550005 ] } },
{ "type": "Feature", "properties": { "idx": 113, "Name": "B1_C_PSEMEN_T3_seedling1", "code_desc": "Point", "note": null, "ndvi_0o25": 0.51650518178939819, "ndvi_0o1": 0.53876155614852905, "shadow_idx": 0.69586396217346191, "gps_rms_m": 0.024, "tilt_deg": 20.6, "n_px_0o25": 278, "n_px_0o1": 43, "thumbnail": "data/raster/seedling_thumbnails/2025/B1_C_PSEMEN_T3_seedling1.png" }, "geometry": { "type": "Point", "coordinates": [ -113.94317606, 46.75548399 ] } },
{ "type": "Feature", "properties": { "idx": 114, "Name": "B1_C_PICENG_adult", "code_desc": "Point", "note": null, "ndvi_0o25": 0.46037259697914124, "ndvi_0o1": 0.42965587973594666, "shadow_idx": 0.70421862602233887, "gps_rms_m": 0.023, "tilt_deg": 16.0, "n_px_0o25": 276, "n_px_0o1": 47, "thumbnail": "data/raster/seedling_thumbnails/2025/B1_C_PICENG_adult.png" }, "geometry": { "type": "Point", "coordinates": [ -113.94321907, 46.75548317 ] } },
{ "type": "Feature", "properties": { "idx": 115, "Name": "B1_C_PSEMEN_adult3", "code_desc": "Point", "note": null, "ndvi_0o25": 0.58761990070343018, "ndvi_0o1": 0.60029226541519165, "shadow_idx": 0.64634674787521362, "gps_rms_m": 0.032, "tilt_deg": 58.4, "n_px_0o25": 277, "n_px_0o1": 43, "thumbnail": "data/raster/seedling_thumbnails/2025/B1_C_PSEMEN_adult3.png" }, "geometry": { "type": "Point", "coordinates": [ -113.94324689, 46.75548119 ] } },
{ "type": "Feature", "properties": { "idx": 116, "Name": "B1_C_PSEMEN_adult4", "code_desc": "Point", "note": null, "ndvi_0o25": -0.12831504642963409, "ndvi_0o1": -0.31684234738349915, "shadow_idx": 0.76852846145629883, "gps_rms_m": 0.02, "tilt_deg": 7.3, "n_px_0o25": 276, "n_px_0o1": 42, "thumbnail": "data/raster/seedling_thumbnails/2025/B1_C_PSEMEN_adult4.png" }, "geometry": { "type": "Point", "coordinates": [ -113.94329938, 46.75571719 ] } },
{ "type": "Feature", "properties": { "idx": 117, "Name": "B5_C_PSEMEN_S1_seedling", "code_desc": "Point", "note": null, "ndvi_0o25": 0.36461615562438965, "ndvi_0o1": 0.42043432593345642, "shadow_idx": 0.71107584238052368, "gps_rms_m": 0.021, "tilt_deg": 10.9, "n_px_0o25": 283, "n_px_0o1": 45, "thumbnail": "data/raster/seedling_thumbnails/2025/B5_C_PSEMEN_S1_seedling.png" }, "geometry": { "type": "Point", "coordinates": [ -113.94422866, 46.75245979 ] } },
{ "type": "Feature", "properties": { "idx": 118, "Name": "B5_C_PICENG_S2_seedling", "code_desc": "Point", "note": null, "ndvi_0o25": 0.32470527291297913, "ndvi_0o1": 0.45299181342124939, "shadow_idx": 0.62371951341629028, "gps_rms_m": 0.026, "tilt_deg": 14.4, "n_px_0o25": 278, "n_px_0o1": 42, "thumbnail": "data/raster/seedling_thumbnails/2025/B5_C_PICENG_S2_seedling.png" }, "geometry": { "type": "Point", "coordinates": [ -113.94423958, 46.75245168 ] } },
{ "type": "Feature", "properties": { "idx": 119, "Name": "B5_C_PSEMEN_T1_seedling", "code_desc": "Point", "note": null, "ndvi_0o25": 0.40417188405990601, "ndvi_0o1": 0.44402694702148438, "shadow_idx": 0.72292822599411011, "gps_rms_m": 0.019, "tilt_deg": 7.8, "n_px_0o25": 278, "n_px_0o1": 42, "thumbnail": "data/raster/seedling_thumbnails/2025/B5_C_PSEMEN_T1_seedling.png" }, "geometry": { "type": "Point", "coordinates": [ -113.94422493, 46.75244465 ] } },
{ "type": "Feature", "properties": { "idx": 120, "Name": "B5_C_PSEMEN_S2_seedling", "code_desc": "Point", "note": null, "ndvi_0o25": 0.28817316889762878, "ndvi_0o1": 0.31304550170898438, "shadow_idx": 0.59812146425247192, "gps_rms_m": 0.025, "tilt_deg": 24.1, "n_px_0o25": 279, "n_px_0o1": 43, "thumbnail": "data/raster/seedling_thumbnails/2025/B5_C_PSEMEN_S2_seedling.png" }, "geometry": { "type": "Point", "coordinates": [ -113.94424122, 46.75243989 ] } },
{ "type": "Feature", "properties": { "idx": 121, "Name": "B5_C_PICENG_T2_seedling", "code_desc": "Point", "note": null, "ndvi_0o25": 0.38310033082962036, "ndvi_0o1": 0.41116160154342651, "shadow_idx": 0.81827002763748169, "gps_rms_m": 0.019, "tilt_deg": 6.7, "n_px_0o25": 276, "n_px_0o1": 43, "thumbnail": "data/raster/seedling_thumbnails/2025/B5_C_PICENG_T2_seedling.png" }, "geometry": { "type": "Point", "coordinates": [ -113.94418731, 46.75244955 ] } },
{ "type": "Feature", "properties": { "idx": 122, "Name": "B5_C_PSEMEN_T2_seedling", "code_desc": "Point", "note": null, "ndvi_0o25": 0.34692147374153137, "ndvi_0o1": 0.40013173222541809, "shadow_idx": 0.82225602865219116, "gps_rms_m": 0.023, "tilt_deg": 16.6, "n_px_0o25": 278, "n_px_0o1": 42, "thumbnail": "data/raster/seedling_thumbnails/2025/B5_C_PSEMEN_T2_seedling.png" }, "geometry": { "type": "Point", "coordinates": [ -113.9441823, 46.75245239 ] } },
{ "type": "Feature", "properties": { "idx": 123, "Name": "B5_C_PSEMEN_adult", "code_desc": "Point", "note": null, "ndvi_0o25": 0.31072986125946045, "ndvi_0o1": 0.33528837561607361, "shadow_idx": 0.59237033128738403, "gps_rms_m": 0.018, "tilt_deg": 2.1, "n_px_0o25": 280, "n_px_0o1": 43, "thumbnail": "data/raster/seedling_thumbnails/2025/B5_C_PSEMEN_adult.png" }, "geometry": { "type": "Point", "coordinates": [ -113.94424121, 46.75260879 ] } },
{ "type": "Feature", "properties": { "idx": 124, "Name": "B5_C_PICENG_adult", "code_desc": "Point", "note": null, "ndvi_0o25": 0.48102959990501404, "ndvi_0o1": 0.47776949405670166, "shadow_idx": 0.74163824319839478, "gps_rms_m": 0.022, "tilt_deg": 17.7, "n_px_0o25": 278, "n_px_0o1": 43, "thumbnail": "data/raster/seedling_thumbnails/2025/B5_C_PICENG_adult.png" }, "geometry": { "type": "Point", "coordinates": [ -113.94420744, 46.75264633 ] } },
{ "type": "Feature", "properties": { "idx": 125, "Name": "B5_C_PICENG_adult1", "code_desc": "Point", "note": null, "ndvi_0o25": 0.33071580529212952, "ndvi_0o1": 0.396767258644104, "shadow_idx": 0.89886164665222168, "gps_rms_m": 0.028, "tilt_deg": 39.9, "n_px_0o25": 276, "n_px_0o1": 47, "thumbnail": "data/raster/seedling_thumbnails/2025/B5_C_PICENG_adult1.png" }, "geometry": { "type": "Point", "coordinates": [ -113.94414372, 46.75261725 ] } },
{ "type": "Feature", "properties": { "idx": 126, "Name": "B5_C_PICENG_adult2", "code_desc": "Point", "note": null, "ndvi_0o25": 0.035439871251583099, "ndvi_0o1": 0.029756611213088036, "shadow_idx": 0.86732590198516846, "gps_rms_m": 0.019, "tilt_deg": 1.4, "n_px_0o25": 280, "n_px_0o1": 42, "thumbnail": "data/raster/seedling_thumbnails/2025/B5_C_PICENG_adult2.png" }, "geometry": { "type": "Point", "coordinates": [ -113.94415804, 46.75258033 ] } },
{ "type": "Feature", "properties": { "idx": 127, "Name": "B5_C_PSEMEN_adult1", "code_desc": "Point", "note": null, "ndvi_0o25": 0.098391093313694, "ndvi_0o1": 0.11327427625656128, "shadow_idx": 0.87333464622497559, "gps_rms_m": 0.018, "tilt_deg": 0.9, "n_px_0o25": 274, "n_px_0o1": 45, "thumbnail": "data/raster/seedling_thumbnails/2025/B5_C_PSEMEN_adult1.png" }, "geometry": { "type": "Point", "coordinates": [ -113.94412226, 46.75258688 ] } },
{ "type": "Feature", "properties": { "idx": 128, "Name": "B5_G_PSEMEN_adult", "code_desc": "Point", "note": null, "ndvi_0o25": 0.40349796414375305, "ndvi_0o1": 0.39858347177505493, "shadow_idx": 0.67050665616989136, "gps_rms_m": 0.019, "tilt_deg": 5.9, "n_px_0o25": 274, "n_px_0o1": 47, "thumbnail": "data/raster/seedling_thumbnails/2025/B5_G_PSEMEN_adult.png" }, "geometry": { "type": "Point", "coordinates": [ -113.94408867, 46.75211108 ] } },
{ "type": "Feature", "properties": { "idx": 129, "Name": "B5_G_PSEMEN_S3_seedling", "code_desc": "Point", "note": null, "ndvi_0o25": 0.28103050589561462, "ndvi_0o1": 0.30131614208221436, "shadow_idx": 0.74702131748199463, "gps_rms_m": 0.021, "tilt_deg": 3.6, "n_px_0o25": 280, "n_px_0o1": 43, "thumbnail": "data/raster/seedling_thumbnails/2025/B5_G_PSEMEN_S3_seedling.png" }, "geometry": { "type": "Point", "coordinates": [ -113.94409502, 46.75207113 ] } },
{ "type": "Feature", "properties": { "idx": 130, "Name": "B5_G_PSEMEN_T3_seedling", "code_desc": "Point", "note": null, "ndvi_0o25": 0.23163443803787231, "ndvi_0o1": 0.23255495727062225, "shadow_idx": 0.69678658246994019, "gps_rms_m": 0.021, "tilt_deg": 9.2, "n_px_0o25": 279, "n_px_0o1": 44, "thumbnail": "data/raster/seedling_thumbnails/2025/B5_G_PSEMEN_T3_seedling.png" }, "geometry": { "type": "Point", "coordinates": [ -113.9440832, 46.75207596 ] } },
{ "type": "Feature", "properties": { "idx": 131, "Name": "B5_G_PINPON_R1_seedlings", "code_desc": "Point", "note": null, "ndvi_0o25": 0.18241295218467712, "ndvi_0o1": 0.22109135985374451, "shadow_idx": 0.58074969053268433, "gps_rms_m": 0.02, "tilt_deg": 4.8, "n_px_0o25": 278, "n_px_0o1": 44, "thumbnail": "data/raster/seedling_thumbnails/2025/B5_G_PINPON_R1_seedlings.png" }, "geometry": { "type": "Point", "coordinates": [ -113.94404135, 46.75205335 ] } }
]
}
